GIOVE-A                 
1 28922U 05051A   13058.23760219  .00000028  00000-0  00000+0 0   687
2 28922  56.3153 121.7281 0005364 353.3789  58.1360  1.69429361 44468
GIOVE-B                 
1 32781U 08020A   13056.70337916  .00000004  00000-0  10000-3 0  6997
2 32781  56.8653 156.8340 0002213 182.4884 177.5211  1.65405280 30093
GALILEO-PFM (GSAT0101)  
1 37846U 11060A   13057.76087453  .00000027  00000-0  00000+0 0  1925
2 37846  54.8481 115.9198 0004390 281.8508  82.2586  1.70474174  8422
GALILEO-FM2 (GSAT0102)  
1 37847U 11060B   13057.79435406  .00000027  00000-0  00000+0 0  1924
2 37847  54.8488 115.9174 0005658 272.1878 152.9190  1.70474494  8426
GALILEO-FM3 (GSAT0103)  
1 38857U 12055A   13056.62352281  .00000050  00000-0  10000-3 0   583
2 38857  55.2743 235.7594 0000751 164.9672 195.0159  1.70473460  2321
GALILEO-FM4 (GSAT0104)  
1 38858U 12055B   13057.14496956  .00000048  00000-0  00000+0 0   537
2 38858  55.2722 235.7429 0000893  96.6030 263.3851  1.70473486  2339
